STARLINK-37601          
1 69450U 26127H   26169.66671295 -.01869049  00000+0 -12037-1 0  9990
2 69450  53.1591 254.9655 0001094  71.9947 134.5092 15.78566023  2871
STARLINK-37578          
1 69451U 26127J   26169.66671295  .00023831  00000+0  12404-3 0  9999
2 69451  53.1590 254.9465 0000863  60.2090 155.5271 15.80855349  2870
STARLINK-37577          
1 69452U 26127K   26169.66671295 -.00021467  00000+0 -10543-3 0  9997
2 69452  53.1591 254.9315 0001017  71.8440 151.1746 15.80885063  2870
STARLINK-37500          
1 69453U 26127L   26169.66671295 -.00016979  00000+0 -82623-4 0  9999
2 69453  53.1591 254.8986 0001170  69.6487 169.5173 15.80880168  2878
STARLINK-37575          
1 69454U 26127M   26169.66671295  .00002108  00000+0  14224-4 0  9999
2 69454  53.1591 254.8951 0001273  37.1151 203.3544 15.80869775  2873
STARLINK-37642          
1 69455U 26127N   26169.66671295 -.00080239  00000+0 -40623-3 0  9994
2 69455  53.1616 254.8455 0000994  64.5005 200.1969 15.80901654  2871
STARLINK-37513          
1 69456U 26127P   26169.66671295  .00013573  00000+0  72213-4 0  9991
2 69456  53.1586 254.8008 0001107  70.9226 215.0615 15.80868408  2877
STARLINK-37563          
1 69457U 26127Q   26169.66671295  .00041046  00000+0  21077-3 0  9999
2 69457  53.1586 254.7703 0001627  64.9399 235.8479 15.80845630  2870
STARLINK-37565          
1 69458U 26127R   26169.66671295 -.00015844  00000+0 -76862-4 0  9992
2 69458  53.1586 254.7788 0000830  52.8121 243.8171 15.80878109  2873
STARLINK-37498          
1 69459U 26127S   26169.66671295 -.01683310  00000+0 -96413-2 0  9995
2 69459  53.1588 254.7759 0001117  47.4206 250.6065 15.81290477  2872
STARLINK-37384          
1 69460U 26127T   26169.66671295 -.00014010  00000+0 -67534-4 0  9995
2 69460  53.1585 254.7525 0001181  69.7601 239.5468 15.80879209  2888
STARLINK-37707          
1 69461U 26127U   26169.66671295 -.01270048  00000+0 -69649-2 0  9999
2 69461  53.1584 254.6883 0000796  86.4088 253.9077 15.81847488  2881
STARLINK-37525          
1 69462U 26127V   26169.66671295  .00003511  00000+0  21339-4 0  9992
2 69462  53.1584 254.6853 0001310  61.4126 280.2959 15.80858441  2880
STARLINK-37526          
1 69463U 26127W   26169.66671295  .00025529  00000+0  13267-3 0  9996
2 69463  53.1587 254.6779 0001196  58.0312 287.2507 15.80845046  2885
STARLINK-37574          
1 69464U 26127X   26169.66671295 -.02006898  00000+0 -10461-1 0  9990
2 69464  53.1585 254.6018 0000691  64.6697 317.3079 15.83326710  2882
STARLINK-37535          
1 69465U 26127Y   26169.66671295 -.00410926  00000+0 -21536-2 0  9996
2 69465  53.1585 254.6191 0000887  61.6001 311.9740 15.81125685  2889
STARLINK-37583          
1 69466U 26127Z   26169.66671295 -.02009339  00000+0 -97970-2 0  9996
2 69466  53.1578 254.5043 0001074  53.4851  15.1822 15.84708749  2883
STARLINK-37546          
1 69467U 26127AA  26169.66671295 -.02054132  00000+0 -97499-2 0  9994
2 69467  53.1575 254.4814 0001095  54.3294  25.2286 15.85332193  2883
STARLINK-37532          
1 69468U 26127AB  26169.66671295 -.02090404  00000+0 -10491-1 0  9993
2 69468  53.1581 254.4871 0001073  47.2499  29.4742 15.84249112  2888
STARLINK-37708          
1 69469U 26127AC  26169.66671295 -.02087822  00000+0 -10364-1 0  9993
2 69469  53.1575 254.4725 0001023  53.3457  30.2152 15.84469905  2886
STARLINK-37686          
1 69470U 26127AD  26169.66671295 -.02076008  00000+0 -10047-1 0  9997
2 69470  53.1574 254.4510 0001112  49.4934  44.4094 15.84971285  2885
STARLINK-37451          
1 69471U 26127AE  26169.66671295 -.02153078  00000+0 -10076-1 0  9993
2 69471  53.1573 254.4323 0001143  58.5830  44.2861 15.85783166  2887
DTC TEST OBJECT A       
1 69472U 26128A   26169.64574703  .00022134  00000+0  31979-3 0  9990
2 69472  54.9943 298.2911 0008594 294.7544  65.2597 15.55896398  1450
DTC TEST OBJECT B       
1 69473U 26128B   26169.64366323  .00027608  00000+0  39010-3 0  9993
2 69473  55.0031 298.2859 0008652 295.5817  64.4324 15.56365972  1447
TJS-25                  
1 69474U 26129A   26162.48255804  .00007407  00000+0  19774-2 0  9990
2 69474  16.5302  30.5351 7751889 199.9639  91.9387  1.72502163    78
STARLINK-37816          
1 69478U 26131A   26168.75003472 -.01093379  37146-3 -26551-2 0  9997
2 69478  97.2824 188.9762 0001149  80.4448  35.9636 15.96316495  2106
STARLINK-37878          
1 69479U 26131B   26168.41668981 -.00976144  30334-3 -22776-2 0  9999
2 69479  97.2817 188.6149 0000872  97.2660 265.8231 15.97036350  1316
STARLINK-37817          
1 69480U 26131C   26168.75003472 -.01095329  37360-3 -26268-2 0  9990
2 69480  97.2822 188.9776 0001181  77.8521  42.4103 15.96547425  2101
STARLINK-37727          
1 69481U 26131D   26168.75003472 -.01098784  37629-3 -26175-2 0  9994
2 69481  97.2819 188.9784 0001174  76.6396  45.7078 15.96671350  2108
STARLINK-37814          
1 69482U 26131E   26168.75003472 -.01099082  37691-3 -26031-2 0  9997
2 69482  97.2821 188.9793 0001181  77.2384  46.9070 15.96778578  2109
