OBJECT_NAME,OBJECT_ID,EPOCH,MEAN_MOTION,ECCENTRICITY,INCLINATION,RA_OF_ASC_NODE,ARG_OF_PERICENTER,MEAN_ANOMALY,EPHEMERIS_TYPE,CLASSIFICATION_TYPE,NORAD_CAT_ID,ELEMENT_SET_NO,REV_AT_EPOCH,BSTAR,MEAN_MOTION_DOT,MEAN_MOTION_DDOT
STARLINK-37601,2026-127H,2026-06-18T16:00:03.998880,15.78566023,.0001094,53.1591,254.9655,71.9947,134.5092,0,U,69450,999,287,-.12037E-1,-.1869049E-1,0
STARLINK-37578,2026-127J,2026-06-18T16:00:03.998880,15.80855349,.0000863,53.1590,254.9465,60.2090,155.5271,0,U,69451,999,287,.12404E-3,.23831E-3,0
STARLINK-37577,2026-127K,2026-06-18T16:00:03.998880,15.80885063,.0001017,53.1591,254.9315,71.8440,151.1746,0,U,69452,999,287,-.10543E-3,-.21467E-3,0
STARLINK-37500,2026-127L,2026-06-18T16:00:03.998880,15.80880168,.000117,53.1591,254.8986,69.6487,169.5173,0,U,69453,999,287,-.82623E-4,-.16979E-3,0
STARLINK-37575,2026-127M,2026-06-18T16:00:03.998880,15.80869775,.0001273,53.1591,254.8951,37.1151,203.3544,0,U,69454,999,287,.14224E-4,.2108E-4,0
STARLINK-37642,2026-127N,2026-06-18T16:00:03.998880,15.80901654,.0000994,53.1616,254.8455,64.5005,200.1969,0,U,69455,999,287,-.40623E-3,-.80239E-3,0
STARLINK-37513,2026-127P,2026-06-18T16:00:03.998880,15.80868408,.0001107,53.1586,254.8008,70.9226,215.0615,0,U,69456,999,287,.72213E-4,.13573E-3,0
STARLINK-37563,2026-127Q,2026-06-18T16:00:03.998880,15.80845630,.0001627,53.1586,254.7703,64.9399,235.8479,0,U,69457,999,287,.21077E-3,.41046E-3,0
STARLINK-37565,2026-127R,2026-06-18T16:00:03.998880,15.80878109,.000083,53.1586,254.7788,52.8121,243.8171,0,U,69458,999,287,-.76862E-4,-.15844E-3,0
STARLINK-37498,2026-127S,2026-06-18T16:00:03.998880,15.81290477,.0001117,53.1588,254.7759,47.4206,250.6065,0,U,69459,999,287,-.96413E-2,-.168331E-1,0
STARLINK-37384,2026-127T,2026-06-18T16:00:03.998880,15.80879209,.0001181,53.1585,254.7525,69.7601,239.5468,0,U,69460,999,288,-.67534E-4,-.1401E-3,0
STARLINK-37707,2026-127U,2026-06-18T16:00:03.998880,15.81847488,.0000796,53.1584,254.6883,86.4088,253.9077,0,U,69461,999,288,-.69649E-2,-.1270048E-1,0
STARLINK-37525,2026-127V,2026-06-18T16:00:03.998880,15.80858441,.000131,53.1584,254.6853,61.4126,280.2959,0,U,69462,999,288,.21339E-4,.3511E-4,0
STARLINK-37526,2026-127W,2026-06-18T16:00:03.998880,15.80845046,.0001196,53.1587,254.6779,58.0312,287.2507,0,U,69463,999,288,.13267E-3,.25529E-3,0
STARLINK-37574,2026-127X,2026-06-18T16:00:03.998880,15.83326710,.0000691,53.1585,254.6018,64.6697,317.3079,0,U,69464,999,288,-.10461E-1,-.2006898E-1,0
STARLINK-37535,2026-127Y,2026-06-18T16:00:03.998880,15.81125685,.0000887,53.1585,254.6191,61.6001,311.9740,0,U,69465,999,288,-.21536E-2,-.410926E-2,0
STARLINK-37583,2026-127Z,2026-06-18T16:00:03.998880,15.84708749,.0001074,53.1578,254.5043,53.4851,15.1822,0,U,69466,999,288,-.9797E-2,-.2009339E-1,0
STARLINK-37546,2026-127AA,2026-06-18T16:00:03.998880,15.85332193,.0001095,53.1575,254.4814,54.3294,25.2286,0,U,69467,999,288,-.97499E-2,-.2054132E-1,0
STARLINK-37532,2026-127AB,2026-06-18T16:00:03.998880,15.84249112,.0001073,53.1581,254.4871,47.2499,29.4742,0,U,69468,999,288,-.10491E-1,-.2090404E-1,0
STARLINK-37708,2026-127AC,2026-06-18T16:00:03.998880,15.84469905,.0001023,53.1575,254.4725,53.3457,30.2152,0,U,69469,999,288,-.10364E-1,-.2087822E-1,0
STARLINK-37686,2026-127AD,2026-06-18T16:00:03.998880,15.84971285,.0001112,53.1574,254.4510,49.4934,44.4094,0,U,69470,999,288,-.10047E-1,-.2076008E-1,0
STARLINK-37451,2026-127AE,2026-06-18T16:00:03.998880,15.85783166,.0001143,53.1573,254.4323,58.5830,44.2861,0,U,69471,999,288,-.10076E-1,-.2153078E-1,0
DTC TEST OBJECT A,2026-128A,2026-06-18T15:29:52.543392,15.55896398,.0008594,54.9943,298.2911,294.7544,65.2597,0,U,69472,999,145,.31979E-3,.22134E-3,0
DTC TEST OBJECT B,2026-128B,2026-06-18T15:26:52.503072,15.56365972,.0008652,55.0031,298.2859,295.5817,64.4324,0,U,69473,999,144,.3901E-3,.27608E-3,0
TJS-25,2026-129A,2026-06-11T11:34:53.014656,1.72502163,.7751889,16.5302,30.5351,199.9639,91.9387,0,U,69474,999,7,.19774E-2,.7407E-4,0
STARLINK-37816,2026-131A,2026-06-17T18:00:02.999808,15.96316495,.00011495,97.2824,188.9762,80.4448,35.9636,0,U,69478,999,210,-.2655077E-2,-.1093379E-1,.37145704E-3
STARLINK-37878,2026-131B,2026-06-17T10:00:01.999584,15.97036350,.00008726,97.2817,188.6149,97.2660,265.8231,0,U,69479,999,131,-.22776066E-2,-.976144E-2,.30334162E-3
STARLINK-37817,2026-131C,2026-06-17T18:00:02.999808,15.96547425,.00011812,97.2822,188.9776,77.8521,42.4103,0,U,69480,999,210,-.26268227E-2,-.1095329E-1,.37360476E-3
STARLINK-37727,2026-131D,2026-06-17T18:00:02.999808,15.96671350,.00011745,97.2819,188.9784,76.6396,45.7078,0,U,69481,999,210,-.26175375E-2,-.1098784E-1,.37628858E-3
STARLINK-37814,2026-131E,2026-06-17T18:00:02.999808,15.96778578,.00011811,97.2821,188.9793,77.2384,46.9070,0,U,69482,999,210,-.26030553E-2,-.1099082E-1,.37691003E-3
